[
  { "code": "de", "name": "Allemagne", "flag": "de.svg", "dial_code": "49" },
  { "code": "at", "name": "Autriche", "flag": "at.svg", "dial_code": "43" },
  { "code": "be", "name": "Belgique", "flag": "be.svg", "dial_code": "32" },
  { "code": "bg", "name": "Bulgarie", "flag": "bg.svg", "dial_code": "359" },
  { "code": "cy", "name": "Chypre", "flag": "cy.svg", "dial_code": "357" },
  { "code": "hr", "name": "Croatie", "flag": "hr.svg", "dial_code": "385" },
  { "code": "dk", "name": "Danemark", "flag": "dk.svg", "dial_code": "45" },
  { "code": "es", "name": "Espagne", "flag": "es.svg", "dial_code": "34" },
  { "code": "ee", "name": "Estonie", "flag": "ee.svg", "dial_code": "372" },
  { "code": "fi", "name": "Finlande", "flag": "fi.svg", "dial_code": "358" },
  { "code": "fr", "name": "France", "flag": "fr.svg", "dial_code": "33" },
  { "code": "gr", "name": "Grèce", "flag": "gr.svg", "dial_code": "30" },
  { "code": "hu", "name": "Hongrie", "flag": "hu.svg", "dial_code": "36" },
  { "code": "ie", "name": "Irlande", "flag": "ie.svg", "dial_code": "353" },
  { "code": "it", "name": "Italie", "flag": "it.svg", "dial_code": "39" },
  { "code": "lv", "name": "Lettonie", "flag": "lv.svg", "dial_code": "371" },
  { "code": "lt", "name": "Lituanie", "flag": "lt.svg", "dial_code": "370" },
  { "code": "lu", "name": "Luxembourg", "flag": "lu.svg", "dial_code": "352" },
  { "code": "mt", "name": "Malte", "flag": "mt.svg", "dial_code": "356" },
  { "code": "nl", "name": "Pays-Bas", "flag": "nl.svg", "dial_code": "31" },
  { "code": "pl", "name": "Pologne", "flag": "pl.svg", "dial_code": "48" },
  { "code": "pt", "name": "Portugal", "flag": "pt.svg", "dial_code": "351" },
  { "code": "cz", "name": "République tchèque", "flag": "cz.svg", "dial_code": "420" },
  { "code": "ro", "name": "Roumanie", "flag": "ro.svg", "dial_code": "40" },
  { "code": "sk", "name": "Slovaquie", "flag": "rs.svg", "dial_code": "421" },
  { "code": "si", "name": "Slovénie", "flag": "si.svg", "dial_code": "386" },
  { "code": "se", "name": "Suède", "flag": "se.svg", "dial_code": "46" }
]
